[
    {
        "Altitude(m)": 558749.6395572459,
        "Argument of Periapsis(deg)": 0.019868973332140504,
        "Eccentricity": 0.0,
        "Inclination(deg)": 53.0,
        "Latitude(deg)": 48.12830403653451,
        "Longitude(deg)": -140.65119198650726,
        "Mean Anomaly(deg)": 68.45667860273274,
        "RAAN(deg)": 264.97043010558406,
        "Satellite Name": "Starlink Shell 1 1168",
        "Satellite Number": 1168,
        "Semi-Major Axis(m)": 6931778.249405717,
        "Time(s)": 570
    },
    {
        "Altitude(m)": 558811.9028434661,
        "Argument of Periapsis(deg)": 0.02021755181165174,
        "Eccentricity": 0.0,
        "Inclination(deg)": 53.0,
        "Latitude(deg)": 48.40014012635748,
        "Longitude(deg)": -139.84591436033148,
        "Mean Anomaly(deg)": 69.08350980628947,
        "RAAN(deg)": 264.96991133550654,
        "Satellite Name": "Starlink Shell 1 1168",
        "Satellite Number": 1168,
        "Semi-Major Axis(m)": 6931778.249405717,
        "Time(s)": 580
    },
    {
        "Altitude(m)": 558872.7555917318,
        "Argument of Periapsis(deg)": 0.020566130291162974,
        "Eccentricity": 0.0,
        "Inclination(deg)": 53.0,
        "Latitude(deg)": 48.66567096257475,
        "Longitude(deg)": -139.03168109297445,
        "Mean Anomaly(deg)": 69.71034100984622,
        "RAAN(deg)": 264.96939256542913,
        "Satellite Name": "Starlink Shell 1 1168",
        "Satellite Number": 1168,
        "Semi-Major Axis(m)": 6931778.249405717,
        "Time(s)": 590
    },
    {
        "Altitude(m)": 558932.1605510408,
        "Argument of Periapsis(deg)": 0.020914708770674213,
        "Eccentricity": 0.0,
        "Inclination(deg)": 53.0,
        "Latitude(deg)": 48.924771921000804,
        "Longitude(deg)": -138.20852954960407,
        "Mean Anomaly(deg)": 70.33717221340292,
        "RAAN(deg)": 264.96887379535167,
        "Satellite Name": "Starlink Shell 1 1168",
        "Satellite Number": 1168,
        "Semi-Major Axis(m)": 6931778.249405717,
        "Time(s)": 600
    },
    {
        "Altitude(m)": 558990.0814069088,
        "Argument of Periapsis(deg)": 0.021263287250185448,
        "Eccentricity": 0.0,
        "Inclination(deg)": 53.0,
        "Latitude(deg)": 49.17731831221603,
        "Longitude(deg)": -137.3765098182598,
        "Mean Anomaly(deg)": 70.96400341695961,
        "RAAN(deg)": 264.96835502527415,
        "Satellite Name": "Starlink Shell 1 1168",
        "Satellite Number": 1168,
        "Semi-Major Axis(m)": 6931778.249405717,
        "Time(s)": 610
    },
    {
        "Altitude(m)": 559046.4827993045,
        "Argument of Periapsis(deg)": 0.021611865729696686,
        "Eccentricity": 0.0,
        "Inclination(deg)": 53.0,
        "Latitude(deg)": 49.42318557643463,
        "Longitude(deg)": -136.535684722096,
        "Mean Anomaly(deg)": 71.59083462051632,
        "RAAN(deg)": 264.96783625519674,
        "Satellite Name": "Starlink Shell 1 1168",
        "Satellite Number": 1168,
        "Semi-Major Axis(m)": 6931778.249405717,
        "Time(s)": 620
    },
    {
        "Altitude(m)": 559101.330340036,
        "Argument of Periapsis(deg)": 0.02196044420920792,
        "Eccentricity": 0.0,
        "Inclination(deg)": 53.0,
        "Latitude(deg)": 49.662249489398235,
        "Longitude(deg)": -135.68613149167325,
        "Mean Anomaly(deg)": 72.21766582407305,
        "RAAN(deg)": 264.9673174851192,
        "Satellite Name": "Starlink Shell 1 1168",
        "Satellite Number": 1168,
        "Semi-Major Axis(m)": 6931778.249405717,
        "Time(s)": 630
    },
    {
        "Altitude(m)": 559154.5906296967,
        "Argument of Periapsis(deg)": 0.02230902268871916,
        "Eccentricity": 0.0,
        "Inclination(deg)": 53.0,
        "Latitude(deg)": 49.89438637903576,
        "Longitude(deg)": -134.82794089016386,
        "Mean Anomaly(deg)": 72.8444970276298,
        "RAAN(deg)": 264.96679871504176,
        "Satellite Name": "Starlink Shell 1 1168",
        "Satellite Number": 1168,
        "Semi-Major Axis(m)": 6931778.249405717,
        "Time(s)": 640
    },
    {
        "Altitude(m)": 559206.231274106,
        "Argument of Periapsis(deg)": 0.022657601168230398,
        "Eccentricity": 0.0,
        "Inclination(deg)": 53.0,
        "Latitude(deg)": 50.119473352544205,
        "Longitude(deg)": -133.96121882947475,
        "Mean Anomaly(deg)": 73.47132823118645,
        "RAAN(deg)": 264.9662799449643,
        "Satellite Name": "Starlink Shell 1 1168",
        "Satellite Number": 1168,
        "Semi-Major Axis(m)": 6931778.249405717,
        "Time(s)": 650
    },
    {
        "Altitude(m)": 559256.2209002193,
        "Argument of Periapsis(deg)": 0.023006179647741636,
        "Eccentricity": 0.0,
        "Inclination(deg)": 53.0,
        "Latitude(deg)": 50.337388533425155,
        "Longitude(deg)": -133.08608626980472,
        "Mean Anomaly(deg)": 74.0981594347432,
        "RAAN(deg)": 264.9657611748868,
        "Satellite Name": "Starlink Shell 1 1168",
        "Satellite Number": 1168,
        "Semi-Major Axis(m)": 6931778.249405717,
        "Time(s)": 660
    },
    {
        "Altitude(m)": 559304.5291715482,
        "Argument of Periapsis(deg)": 0.023354758127252868,
        "Eccentricity": 0.0,
        "Inclination(deg)": 53.0,
        "Latitude(deg)": 50.54801130791041,
        "Longitude(deg)": -132.20267907843507,
        "Mean Anomaly(deg)": 74.7249906382999,
        "RAAN(deg)": 264.9652424048093,
        "Satellite Name": "Starlink Shell 1 1168",
        "Satellite Number": 1168,
        "Semi-Major Axis(m)": 6931778.249405717,
        "Time(s)": 670
    },
    {
        "Altitude(m)": 559351.1268030432,
        "Argument of Periapsis(deg)": 0.023703336606764106,
        "Eccentricity": 0.0,
        "Inclination(deg)": 53.0,
        "Latitude(deg)": 50.751222580093845,
        "Longitude(deg)": -131.31114935539776,
        "Mean Anomaly(deg)": 75.35182184185663,
        "RAAN(deg)": 264.96472363473185,
        "Satellite Name": "Starlink Shell 1 1168",
        "Satellite Number": 1168,
        "Semi-Major Axis(m)": 6931778.249405717,
        "Time(s)": 680
    },
    {
        "Altitude(m)": 559395.985575482,
        "Argument of Periapsis(deg)": 0.024051915086275345,
        "Eccentricity": 0.0,
        "Inclination(deg)": 53.0,
        "Latitude(deg)": 50.94690503496319,
        "Longitude(deg)": -130.41166519505296,
        "Mean Anomaly(deg)": 75.97865304541338,
        "RAAN(deg)": 264.9642048646544,
        "Satellite Name": "Starlink Shell 1 1168",
        "Satellite Number": 1168,
        "Semi-Major Axis(m)": 6931778.249405717,
        "Time(s)": 690
    },
    {
        "Altitude(m)": 559439.0783492868,
        "Argument of Periapsis(deg)": 0.024400493565786583,
        "Eccentricity": 0.0,
        "Inclination(deg)": 53.0,
        "Latitude(deg)": 51.134943408411814,
        "Longitude(deg)": -129.5044103912875,
        "Mean Anomaly(deg)": 76.60548424897003,
        "RAAN(deg)": 264.9636860945769,
        "Satellite Name": "Starlink Shell 1 1168",
        "Satellite Number": 1168,
        "Semi-Major Axis(m)": 6931778.249405717,
        "Time(s)": 700
    },
    {
        "Altitude(m)": 559480.3790778231,
        "Argument of Periapsis(deg)": 0.024749072045297815,
        "Eccentricity": 0.0,
        "Inclination(deg)": 53.0,
        "Latitude(deg)": 51.31522476319116,
        "Longitude(deg)": -128.5895855941841,
        "Mean Anomaly(deg)": 77.23231545252678,
        "RAAN(deg)": 264.96316732449947,
        "Satellite Name": "Starlink Shell 1 1168",
        "Satellite Number": 1168,
        "Semi-Major Axis(m)": 6931778.249405717,
        "Time(s)": 710
    },
    {
        "Altitude(m)": 559519.8628201749,
        "Argument of Periapsis(deg)": 0.025097650524809053,
        "Eccentricity": 0.0,
        "Inclination(deg)": 53.0,
        "Latitude(deg)": 51.48763876964049,
        "Longitude(deg)": -127.66740788760904,
        "Mean Anomaly(deg)": 77.85914665608347,
        "RAAN(deg)": 264.962648554422,
        "Satellite Name": "Starlink Shell 1 1168",
        "Satellite Number": 1168,
        "Semi-Major Axis(m)": 6931778.249405717,
        "Time(s)": 720
    },
    {
        "Altitude(m)": 559557.5057533307,
        "Argument of Periapsis(deg)": 0.02544622900432029,
        "Eccentricity": 0.0,
        "Inclination(deg)": 53.0,
        "Latitude(deg)": 51.65207798992265,
        "Longitude(deg)": -126.73811029607045,
        "Mean Anomaly(deg)": 78.48597785964022,
        "RAAN(deg)": 264.9621297843445,
        "Satellite Name": "Starlink Shell 1 1168",
        "Satellite Number": 1168,
        "Semi-Major Axis(m)": 6931778.249405717,
        "Time(s)": 730
    },
    {
        "Altitude(m)": 559593.2851838461,
        "Argument of Periapsis(deg)": 0.02579480748383153,
        "Eccentricity": 0.0,
        "Inclination(deg)": 53.0,
        "Latitude(deg)": 51.80843816438482,
        "Longitude(deg)": -125.80194272957368,
        "Mean Anomaly(deg)": 79.11280906319696,
        "RAAN(deg)": 264.961611014267,
        "Satellite Name": "Starlink Shell 1 1168",
        "Satellite Number": 1168,
        "Semi-Major Axis(m)": 6931778.249405717,
        "Time(s)": 740
    },
    {
        "Altitude(m)": 559627.17955894,
        "Argument of Periapsis(deg)": 0.026143385963342765,
        "Eccentricity": 0.0,
        "Inclination(deg)": 53.0,
        "Latitude(deg)": 51.9566184985566,
        "Longitude(deg)": -124.85917133704122,
        "Mean Anomaly(deg)": 79.73964026675361,
        "RAAN(deg)": 264.96109224418956,
        "Satellite Name": "Starlink Shell 1 1168",
        "Satellite Number": 1168,
        "Semi-Major Axis(m)": 6931778.249405717,
        "Time(s)": 750
    }
]